ONEWEB-0045             
1 45151U 20008W   25358.67294685  .00000097  00000+0  23899-3 0  9995
2 45151  87.8860  55.7967 0001907  99.3233 260.8110 13.11419466287539
ONEWEB-0047             
1 45152U 20008X   25358.74859500  .00000346  00000+0  95402-3 0  9993
2 45152  87.8794  71.0420 0001884 107.0896 253.0438 13.10369860285353
ONEWEB-0048             
1 45153U 20008Y   25358.74362227  .00000557  00000+0  15583-2 0  9994
2 45153  87.8792  71.0707 0001643 102.0004 258.1308 13.10375732284962
ONEWEB-0049             
1 45154U 20008Z   25358.74680061  .00000372  00000+0  10297-2 0  9996
2 45154  87.8792  71.0586 0001941 119.0547 241.0775 13.10371772285183
ONEWEB-0051             
1 45155U 20008AA  25358.67123543 -.00000086  00000+0 -27945-3 0  9999
2 45155  87.8843  55.8159 0001790 100.6784 259.4545 13.11417889288214
ONEWEB-0052             
1 45156U 20008AB  25358.74113088  .00000611  00000+0  17151-2 0  9990
2 45156  87.8806  71.0216 0001969 118.1482 241.9844 13.10370970285094
ONEWEB-0053             
1 45157U 20008AC  25358.64734010  .00000546  00000+0  15284-2 0  9996
2 45157  87.8797  71.0845 0001885  94.7067 265.4276 13.10376435285055
ONEWEB-0054             
1 45158U 20008AD  25358.75854772 -.00000217  00000+0 -65670-3 0  9999
2 45158  87.8794  71.0350 0001728 106.1544 253.9773 13.10369812285187
